[{"OBJECT_NAME":"STARLINK-5550","OBJECT_ID":"2023-058AW","EPOCH":"2026-03-09T22:46:53.883264","MEAN_MOTION":15.01262692,"ECCENTRICITY":0.00019883,"INCLINATION":97.6042,"RA_OF_ASC_NODE":70.534,"ARG_OF_PERICENTER":85.6098,"MEAN_ANOMALY":274.5353,"EPHEMERIS_TYPE":0,"CLASSIFICATION_TYPE":"U","NORAD_CAT_ID":56361,"ELEMENT_SET_NO":999,"REV_AT_EPOCH":15817,"BSTAR":-6.9277307e-5,"MEAN_MOTION_DOT":-9.48e-6,"MEAN_MOTION_DDOT":0},{"OBJECT_NAME":"CZ-2D DEB","OBJECT_ID":"2018-048F","EPOCH":"2026-03-09T12:09:53.706240","MEAN_MOTION":15.03119858,"ECCENTRICITY":0.00118256,"INCLINATION":98.3009,"RA_OF_ASC_NODE":268.7455,"ARG_OF_PERICENTER":183.5969,"MEAN_ANOMALY":176.5171,"EPHEMERIS_TYPE":0,"CLASSIFICATION_TYPE":"U","NORAD_CAT_ID":44619,"ELEMENT_SET_NO":999,"REV_AT_EPOCH":41667,"BSTAR":0.00065531565,"MEAN_MOTION_DOT":8.795e-5,"MEAN_MOTION_DDOT":0}]
